NORAD_CAT_ID,OBJECT_NAME,OBJECT_TYPE,EPOCH,MEAN_MOTION,ECCENTRICITY,INCLINATION,RA_OF_ASC_NODE,ARG_OF_PERICENTER,MEAN_ANOMALY,BSTAR,MEAN_MOTION_DOT,MEAN_MOTION_DDOT,TLE_LINE0,TLE_LINE1,TLE_LINE2,SEMIMAJOR_AXIS,PERIOD,APOGEE,PERIGEE,DECAYED
53164.0,STARLINK-4116,PAYLOAD,2024-06-30 08:15:12,15.08826072,0.0001124,53.2173,55.4966,112.5459,247.5652,-8.3279e-05,-1.612e-05,0.0,0 STARLINK-4116,1 53164U 22083AJ  24182.34389544 -.00001612  00000-0 -83279-4 0  9996,2 53164  53.2173  55.4966 0001124 112.5459 247.5652 15.08826072108797,6917.923,95.438,540.566,539.01,0.0
53164.0,STARLINK-4116,PAYLOAD,2024-06-30 14:36:44,15.08837604,9.72e-05,53.2169,54.3021,90.9556,269.1548,-0.00016676,-2.941e-05,0.0,0 STARLINK-4116,1 53164U 22083AJ  24182.60885277 -.00002941  00000-0 -16676-3 0  9991,2 53164  53.2169  54.3021 0000972  90.9556 269.1548 15.08837604108202,6917.888,95.438,540.425,539.08,0.0
53164.0,STARLINK-4116,PAYLOAD,2024-06-30 20:58:16,15.08850116,0.0001154,53.2161,53.1152,67.3758,292.7356,-4.3424e-05,-9.79e-06,0.0,0 STARLINK-4116,1 53164U 22083AJ  24182.87380194 -.00000979  00000-0 -43424-4 0  9999,2 53164  53.2161  53.1152 0001154  67.3758 292.7356 15.08850116108876,6917.849,95.437,540.513,538.916,0.0
53164.0,STARLINK-4116,PAYLOAD,2024-06-30 22:33:39,15.08853662,0.0001038,53.2157,52.8183,77.3978,282.713,-3.5063e-06,-3.44e-06,0.0,0 STARLINK-4116,1 53164U 22083AJ  24182.94003771 -.00000344  00000-0 -35063-5 0  9997,2 53164  53.2157  52.8183 0001038  77.3978 282.7130 15.08853662108257,6917.839,95.437,540.422,538.986,0.0
53164.0,STARLINK-4116,PAYLOAD,2024-07-01 08:05:58,15.08844448,0.0001146,53.2151,51.0314,74.5008,285.6111,0.00012118,1.641e-05,0.0,0 STARLINK-4116,1 53164U 22083AJ  24183.33748221  .00001641  00000-0  12118-3 0  9990,2 53164  53.2151  51.0314 0001146  74.5008 285.6111 15.08844448108311,6917.867,95.437,540.525,538.939,0.0
53164.0,STARLINK-4116,PAYLOAD,2024-07-01 19:13:41,15.08837926,0.0001447,53.2163,48.9486,74.0055,286.1096,0.00035399,5.35e-05,0.0,0 STARLINK-4116,1 53164U 22083AJ  24183.80117016  .00005350  00000-0  35399-3 0  9991,2 53164  53.2163  48.9486 0001447  74.0055 286.1096 15.08837926109019,6917.887,95.438,540.753,538.751,0.0
53164.0,STARLINK-4116,PAYLOAD,2024-07-01 22:24:26,15.08839184,0.0001438,53.2176,48.3557,84.2887,275.8269,0.00038398,5.828e-05,0.0,0 STARLINK-4116,1 53164U 22083AJ  24183.93364425  .00005828  00000-0  38398-3 0  9995,2 53164  53.2176  48.3557 0001438  84.2887 275.8269 15.08839184108409,6917.883,95.438,540.743,538.753,0.0
53164.0,STARLINK-4116,PAYLOAD,2024-07-02 01:35:13,15.08848344,0.000144,53.2169,47.7615,89.9165,270.1992,0.00041629,6.345e-05,0.0,0 STARLINK-4116,1 53164U 22083AJ  24184.06612467  .00006345  00000-0  41629-3 0  9998,2 53164  53.2169  47.7615 0001440  89.9165 270.1992 15.08848344109054,6917.855,95.437,540.716,538.724,0.0
53164.0,STARLINK-4116,PAYLOAD,2024-07-02 07:56:45,15.08841046,0.0001325,53.2151,46.5694,77.793,282.3211,0.0001338,1.842e-05,0.0,0 STARLINK-4116,1 53164U 22083AJ  24184.33108708  .00001842  00000-0  13380-3 0  9996,2 53164  53.2151  46.5694 0001325  77.7930 282.3211 15.08841046109091,6917.877,95.437,540.659,538.826,0.0
53164.0,STARLINK-4116,PAYLOAD,2024-07-02 14:18:18,15.08839019,0.0001351,53.2146,45.381,82.5229,277.5917,9.5372e-05,1.23e-05,0.0,0 STARLINK-4116,1 53164U 22083AJ  24184.59604796  .00001230  00000-0  95372-4 0  9995,2 53164  53.2146  45.3810 0001351  82.5229 277.5917 15.08839019108507,6917.883,95.438,540.683,538.814,0.0
53164.0,STARLINK-4116,PAYLOAD,2024-07-02 22:15:13,15.08846901,0.000116,53.2167,43.8962,84.4342,275.6782,-1.5337e-05,-5.32e-06,0.0,0 STARLINK-4116,1 53164U 22083AJ  24184.92724294 -.00000532  00000-0 -15337-4 0  9997,2 53164  53.2167  43.8962 0001160  84.4342 275.6782 15.08846901108558,6917.859,95.437,540.527,538.922,0.0
53164.0,STARLINK-4116,PAYLOAD,2024-07-03 20:30:37,15.08842701,0.0001113,53.2161,39.7339,91.6953,268.4167,5.2339e-05,5.45e-06,0.0,0 STARLINK-4116,1 53164U 22083AJ  24185.85460388  .00000545  00000-0  52339-4 0  9996,2 53164  53.2161  39.7339 0001113  91.6953 268.4167 15.08842701109327,6917.872,95.437,540.507,538.967,0.0
53164.0,STARLINK-4116,PAYLOAD,2024-07-03 22:06:00,15.08848,0.000122,53.2153,39.4364,90.8476,269.2656,3.6821e-05,2.98e-06,0.0,0 STARLINK-4116,1 53164U 22083AJ  24185.92084101  .00000298  00000-0  36821-4 0  9992,2 53164  53.2153  39.4364 0001220  90.8476 269.2656 15.08848000108704,6917.856,95.437,540.565,538.877,0.0
53164.0,STARLINK-4116,PAYLOAD,2024-07-04 07:38:19,15.08841659,0.0001214,53.2154,37.6522,87.1721,272.941,-2.7471e-05,-7.25e-06,0.0,0 STARLINK-4116,1 53164U 22083AJ  24186.31828416 -.00000725  00000-0 -27471-4 0  9999,2 53164  53.2154  37.6522 0001214  87.1721 272.9410 15.08841659108764,6917.875,95.437,540.58,538.9,0.0
53164.0,STARLINK-4116,PAYLOAD,2024-07-04 20:21:25,15.08839406,0.0001127,53.2167,35.2713,94.8043,265.3078,6.1098e-05,6.85e-06,0.0,0 STARLINK-4116,1 53164U 22083AJ  24186.84820705  .00000685  00000-0  61098-4 0  9996,2 53164  53.2167  35.2713 0001127  94.8043 265.3078 15.08839406109471,6917.882,95.438,540.527,538.968,0.0
53164.0,STARLINK-4116,PAYLOAD,2024-07-05 07:29:06,15.08844424,0.0001127,53.2174,33.1892,100.5176,259.5943,0.00017079,2.432e-05,0.0,0 STARLINK-4116,1 53164U 22083AJ  24187.31188461  .00002432  00000-0  17079-3 0  9996,2 53164  53.2174  33.1892 0001127 100.5176 259.5943 15.08844424108916,6917.867,95.437,540.512,538.952,0.0
53164.0,STARLINK-4116,PAYLOAD,2024-07-05 20:12:11,15.08846637,0.0001254,53.2176,30.8097,104.0977,256.0155,0.00027975,4.168e-05,0.0,0 STARLINK-4116,1 53164U 22083AJ  24187.84180338  .00004168  00000-0  27975-3 0  9993,2 53164  53.2176  30.8097 0001254 104.0977 256.0155 15.08846637108991,6917.86,95.437,540.593,538.858,0.0
53164.0,STARLINK-4116,PAYLOAD,2024-07-05 23:22:57,15.0884868,0.000128,53.2178,30.2147,104.9727,255.1407,0.00032563,4.9e-05,0.0,0 STARLINK-4116,1 53164U 22083AJ  24187.97428226  .00004900  00000-0  32563-3 0  9991,2 53164  53.2178  30.2147 0001280 104.9727 255.1407 15.08848680109647,6917.854,95.437,540.604,538.833,0.0
53164.0,STARLINK-4116,PAYLOAD,2024-07-06 13:41:26,15.08840011,0.000127,53.2177,27.5402,87.7021,272.4117,6.6596e-05,7.72e-06,0.0,0 STARLINK-4116,1 53164U 22083AJ  24188.57044715  .00000772  00000-0  66596-4 0  9992,2 53164  53.2177  27.5402 0001270  87.7021 272.4117 15.08840011109104,6917.88,95.438,540.624,538.867,0.0
53164.0,STARLINK-4116,PAYLOAD,2024-07-06 20:02:59,15.08839294,0.0001207,53.2174,26.3501,89.1692,270.9439,8.9425e-05,1.136e-05,0.0,0 STARLINK-4116,1 53164U 22083AJ  24188.83540796  .00001136  00000-0  89425-4 0  9992,2 53164  53.2174  26.3501 0001207  89.1692 270.9439 15.08839294109772,6917.883,95.438,540.583,538.913,0.0
53164.0,STARLINK-4116,PAYLOAD,2024-07-06 23:13:45,15.08839981,0.0001231,53.2175,25.756,87.846,272.2673,5.5287e-05,5.92e-06,0.0,0 STARLINK-4116,1 53164U 22083AJ  24188.96788717  .00000592  00000-0  55287-4 0  9997,2 53164  53.2175  25.7560 0001231  87.8460 272.2673 15.08839981109167,6917.88,95.438,540.597,538.894,0.0
53164.0,STARLINK-4116,PAYLOAD,2024-07-08 05:26:05,15.08843722,0.0001322,53.2181,20.1066,87.2908,272.8235,0.00014426,2.009e-05,0.0,0 STARLINK-4116,1 53164U 22083AJ  24190.22644730  .00002009  00000-0  14426-3 0  9999,2 53164  53.2181  20.1066 0001322  87.2908 272.8235 15.08843722109984,6917.869,95.437,540.649,538.819,0.0
53164.0,STARLINK-4116,PAYLOAD,2024-07-08 19:44:33,15.08837839,0.0001459,53.2192,17.4362,102.4831,257.6324,0.0001142,1.53e-05,0.0,0 STARLINK-4116,1 53164U 22083AJ  24190.82261193  .00001530  00000-0  11420-3 0  9992,2 53164  53.2192  17.4362 0001459 102.4831 257.6324 15.08837839110074,6917.887,95.438,540.761,538.743,0.0
53164.0,STARLINK-4116,PAYLOAD,2024-07-08 21:19:56,15.08840121,0.0001447,53.2194,17.1384,94.6906,265.4251,0.00014598,2.036e-05,0.0,0 STARLINK-4116,1 53164U 22083AJ  24190.88885117  .00002036  00000-0  14598-3 0  9997,2 53164  53.2194  17.1384 0001447  94.6906 265.4251 15.08840121109453,6917.88,95.438,540.746,538.744,0.0
53164.0,STARLINK-4116,PAYLOAD,2024-07-09 11:38:25,15.08835428,0.0001166,53.2173,14.4588,83.2611,276.8514,6.0407e-05,6.74e-06,0.0,0 STARLINK-4116,1 53164U 22083AJ  24191.48501348  .00000674  00000-0  60407-4 0  9992,2 53164  53.2173  14.4588 0001166  83.2611 276.8514 15.08835428109543,6917.894,95.438,540.566,538.953,0.0
53164.0,STARLINK-4116,PAYLOAD,2024-07-09 19:35:20,15.08843779,0.0001208,53.2177,12.9724,89.9826,270.1304,5.3e-05,5.56e-06,0.0,0 STARLINK-4116,1 53164U 22083AJ  24191.81620955  .00000556  00000-0  53000-4 0  9995,2 53164  53.2177  12.9724 0001208  89.9826 270.1304 15.08843779109597,6917.869,95.437,540.57,538.898,0.0
53164.0,STARLINK-4116,PAYLOAD,2024-07-10 05:07:39,15.08841119,0.0001304,53.2184,11.188,92.4183,267.6958,5.2561e-05,5.49e-06,0.0,0 STARLINK-4116,1 53164U 22083AJ  24192.21365121  .00000549  00000-0  52561-4 0  9994,2 53164  53.2184  11.1880 0001304  92.4183 267.6958 15.08841119110281,6917.877,95.437,540.644,538.84,0.0
53164.0,STARLINK-4116,PAYLOAD,2024-07-11 11:19:59,15.08834618,0.0001138,53.2173,5.5368,88.9988,271.1135,0.00024345,3.588e-05,0.0,0 STARLINK-4116,1 53164U 22083AJ  24193.47221630  .00003588  00000-0  24345-3 0  9993,2 53164  53.2173   5.5368 0001138  88.9988 271.1135 15.08834618109848,6917.897,95.438,540.549,538.975,0.0
53164.0,STARLINK-4116,PAYLOAD,2024-07-12 11:10:47,15.08824611,0.0002122,53.2157,1.0764,83.8459,276.2774,-9.8491e-05,-1.855e-05,0.0,0 STARLINK-4116,1 53164U 22083AJ  24194.46582734 -.00001855  00000-0 -98491-4 0  9999,2 53164  53.2157   1.0764 0002122  83.8459 276.2774 15.08824611110627,6917.927,95.439,541.26,538.324,0.0
53164.0,STARLINK-4116,PAYLOAD,2024-07-12 17:32:20,15.08816138,0.000139,53.2164,359.8867,87.8,272.3151,-0.00018548,-3.237e-05,0.0,0 STARLINK-4116,1 53164U 22083AJ  24194.73079329 -.00003237  00000-0 -18548-3 0  9990,2 53164  53.2164 359.8867 0001390  87.8000 272.3151 15.08816138110031,6917.953,95.439,540.78,538.857,0.0
